STARLINK-4756           
1 53826U 22114J   22270.91668981 -.01350775  00000+0 -91055-2 0  9996
2 53826  53.2171 214.9003 0005105 270.0639 283.9938 15.77026831  1971
STARLINK-4764           
1 53827U 22114K   22271.25001157 -.01194353  00000+0 -84892-2 0  9990
2 53827  53.2174 213.2486 0001280  49.8766 235.4537 15.75999523  2024
STARLINK-4760           
1 53828U 22114L   22270.91668981 -.01181862  00000+0 -80299-2 0  9995
2 53828  53.2170 214.8991 0005042 268.6245 285.9971 15.76930165  1975
STARLINK-4759           
1 53829U 22114M   22271.25001157 -.01193755  00000+0 -84789-2 0  9992
2 53829  53.2174 213.2476 0001095  73.8243 212.0370 15.76016079  2029
STARLINK-4761           
1 53830U 22114N   22271.25001157 -.01167549  00000+0 -82345-2 0  9992
2 53830  53.2174 213.2428 0003208 269.4585  19.0433 15.76087540  2024
STARLINK-4649           
1 53831U 22114P   22270.91668981 -.01197160  00000+0 -81482-2 0  9992
2 53831  53.2171 214.9010 0006388 269.1758 284.4350 15.76903177  1970
STARLINK-4747           
1 53832U 22114Q   22270.91668981 -.01362596  00000+0 -91512-2 0  9995
2 53832  53.2170 214.8953 0005792 270.3325 286.2539 15.77121123  1970
STARLINK-4771           
1 53833U 22114R   22271.25001157 -.01170470  00000+0 -82700-2 0  9997
2 53833  53.2174 213.2435 0001725 269.9061  18.0694 15.76071853  2029
STARLINK-4737           
1 53834U 22114S   22270.91668981 -.01363374  00000+0 -91424-2 0  9994
2 53834  53.2171 214.8934 0005752 270.3173 287.2729 15.77157422  1972
STARLINK-4783           
1 53835U 22114T   22270.91668981 -.01354677  00000+0 -91052-2 0  9998
2 53835  53.2170 214.8958 0005168 270.3931 285.6922 15.77098411  1970
STARLINK-4778           
1 53836U 22114U   22270.91668981 -.01165404  00000+0 -78572-2 0  9999
2 53836  53.2170 214.8909 0005896 269.7546 288.9210 15.77049771  1970
STARLINK-4776           
1 53837U 22114V   22270.91668981 -.01309785  00000+0 -87768-2 0  9999
2 53837  53.2171 214.8943 0003565 282.3777 274.7230 15.77101742  1970
STARLINK-4773           
1 53838U 22114W   22271.25001157 -.01167635  00000+0 -81904-2 0  9996
2 53838  53.2174 213.2358 0003204 269.4733  22.7008 15.76210113  2028
STARLINK-4784           
1 53839U 22114X   22271.25001157 -.01167151  00000+0 -81974-2 0  9997
2 53839  53.2174 213.2373 0003658 269.3897  21.7392 15.76174314  2026
STARLINK-4766           
1 53840U 22114Y   22271.25001157 -.01169117  00000+0 -81868-2 0  9995
2 53840  53.2174 213.2326 0002297 269.7271  24.0157 15.76263302  2025
STARLINK-4750           
1 53841U 22114Z   22271.25001157 -.01167808  00000+0 -81854-2 0  9996
2 53841  53.2174 213.2342 0003068 269.5046  23.1857 15.76229339  2028
STARLINK-4754           
1 53842U 22114AA  22271.25001157 -.01167509  00000+0 -81563-2 0  9992
2 53842  53.2174 213.2305 0003461 269.4399  25.3443 15.76297583  2026
STARLINK-4769           
1 53843U 22114AB  22270.91668981 -.01181472  00000+0 -79556-2 0  9993
2 53843  53.2170 214.8875 0005733 269.3978 290.7743 15.77117390  1970
STARLINK-4745           
1 53844U 22114AC  22271.25001157 -.01167509  00000+0 -81434-2 0  9991
2 53844  53.2174 213.2284 0003521 269.4376  26.3891 15.76332282  2020
STARLINK-4753           
1 53845U 22114AD  22271.25001157 -.01167257  00000+0 -81598-2 0  9993
2 53845  53.2174 213.2312 0003697 269.3986  24.8670 15.76279283  2022
STARLINK-4746           
1 53846U 22114AE  22270.91668981 -.01322701  00000+0 -87769-2 0  9993
2 53846  53.2171 214.8818 0004282 270.0726 293.5523 15.77335034  1973
STARLINK-4777           
1 53847U 22114AF  22271.25001157 -.01168113  00000+0 -81573-2 0  9990
2 53847  53.2174 213.2291 0002947 269.5537  25.7551 15.76314646  2022
STARLINK-4780           
1 53848U 22114AG  22270.91668981 -.01338111  00000+0 -88643-2 0  9999
2 53848  53.2169 214.8794 0005671 269.1863 295.4289 15.77380454  1975
STARLINK-4770           
1 53849U 22114AH  22270.91668981 -.01182153  00000+0 -79252-2 0  9999
2 53849  53.2171 214.8825 0005431 269.4094 293.7640 15.77222052  1978
STARLINK-4767           
1 53850U 22114AJ  22270.91668981 -.01338746  00000+0 -88439-2 0  9999
2 53850  53.2169 214.8765 0006253 269.7335 296.3721 15.77433331  1977
STARLINK-4755           
1 53851U 22114AK  22270.91668981 -.01278706  00000+0 -86145-2 0  9991
2 53851  53.2170 214.8803 0005524 268.9764 295.1545 15.77337143  1975
STARLINK-4797           
1 53852U 22114AL  22271.25001157 -.01294243  00000+0 -88787-2 0  9994
2 53852  53.2172 213.2186 0001555 293.0911   7.3638 15.76570236  2022
STARLINK-4794           
1 53853U 22114AM  22271.25001157 -.01304884  00000+0 -89822-2 0  9999
2 53853  53.2174 213.2228 0002001 284.1568  14.2179 15.76510417  2020
STARLINK-4800           
1 53854U 22114AN  22270.91668981 -.01234132  00000+0 -82400-2 0  9999
2 53854  53.2171 214.8729 0004987 268.1071 300.0128 15.77440581  1975
STARLINK-4703           
1 53855U 22114AP  22271.25001157 -.01173269  00000+0 -81593-2 0  9999
2 53855  53.2175 213.2219 0001216 269.8570  29.0860 15.76440070  2021
STARLINK-4795           
1 53856U 22114AQ  22270.91668981 -.01292168  00000+0 -86259-2 0  9990
2 53856  53.2169 214.8673 0005442 268.8884 301.6842 15.77573003  1974
STARLINK-4809           
1 53857U 22114AR  22271.25001157 -.01320633  00000+0 -90796-2 0  9995
2 53857  53.2171 213.2192 0001505 282.2136  17.7135 15.76574057  2029
STARLINK-4798           
1 53858U 22114AS  22270.91668981 -.01172222  00000+0 -77859-2 0  9996
2 53858  53.2170 214.8717 0005528 269.5076 299.1467 15.77403979  1971
STARLINK-4790           
1 53859U 22114AT  22270.91668981 -.01239734  00000+0 -82874-2 0  9992
2 53859  53.2169 214.8730 0004976 268.1816 299.4426 15.77427102  1970
STARLINK-4799           
1 53860U 22114AU  22271.25001157 -.01313818  00000+0 -89831-2 0  9994
2 53860  53.2171 213.2122 0000956 318.5274 345.0149 15.76689250  2025
STARLINK-4781           
1 53861U 22114AV  22270.91668981 -.01194245  00000+0 -79360-2 0  9998
2 53861  53.2169 214.8701 0005538 268.9257 300.2069 15.77443820  1972
STARLINK-4792           
1 53862U 22114AW  22271.25001157 -.01298547  00000+0 -88550-2 0  9994
2 53862  53.2172 213.2104 0001515 301.0540   3.5171 15.76713293  2029
STARLINK-4788           
1 53863U 22114AX  22271.25001157 -.01313188  00000+0 -89845-2 0  9992
2 53863  53.2174 213.2131 0001295 327.0324 335.9963 15.76670529  2020
STARLINK-4779           
1 53864U 22114AY  22271.25001157 -.01168733  00000+0 -80347-2 0  9995
2 53864  53.2175 213.2090 0003341 269.5868  36.0636 15.76661981  2021
STARLINK-4785           
1 53865U 22114AZ  22271.25001157 -.01168272  00000+0 -80351-2 0  9999
2 53865  53.2175 213.2095 0003759 269.4929  35.6399 15.76645222  2028
STARLINK-4762           
1 53866U 22114BA  22271.25001157 -.01168870  00000+0 -80164-2 0  9996
2 53866  53.2175 213.2060 0003437 269.5866  37.5982 15.76714593  2022
STARLINK-4793           
1 53867U 22114BB  22270.91668981 -.01160339  00000+0 -76472-2 0  9992
2 53867  53.2169 214.8630 0006229 269.1125 303.4815 15.77537280  1972
STARLINK-4789           
1 53868U 22114BC  22271.25001157 -.00572337  00000+0 -38100-2 0  9997
2 53868  53.2174 213.2044 0001110 104.8298 203.1136 15.76275087  2023
STARLINK-4810           
1 53869U 22114BD  22271.25001157 -.01323967  00000+0 -90138-2 0  9991
2 53869  53.2175 213.2060 0001345 317.7897 348.8250 15.76801419  2021
STARLINK-4732           
1 53870U 22114BE  22270.91668981 -.01146919  00000+0 -75311-2 0  9995
2 53870  53.2170 214.8600 0005765 268.5853 305.9813 15.77595962  1303
STARLINK-4740           
1 53871U 22114BF  22271.25001157 -.01169020  00000+0 -79990-2 0  9995
2 53871  53.2175 213.2024 0003541 269.5890  39.1377 15.76764941  2029
FALCON 9 DEB            
1 53872U 22114BG  22271.12643629  .00919850  11506-4  89547-3 0  9997
2 53872  53.2175 213.0054 0059953  80.5356 280.2448 16.06899204  2569
FALCON 9 DEB            
1 53873U 22114BH  22271.12388529  .00912913  11513-4  89584-3 0  9995
2 53873  53.2140 212.9832 0055378  81.8031 278.9279 16.07332133  2565
FALCON 9 DEB            
1 53874U 22114BJ  22270.86888798  .00916781  11537-4  85755-3 0  9998
2 53874  53.2144 214.2276 0054108  75.2376 285.4646 16.08158512  2521
FALCON 9 DEB            
1 53875U 22114BK  22270.86779000  .00989840  11545-4  90182-3 0  9999
2 53875  53.2160 214.2204 0054418  77.1392 283.5715 16.08489465  2524
CHUANGXIN 16B (CX-16B)  
1 53876U 22102B   22270.88838050  .00003213  00000+0  29828-3 0  9999
2 53876  28.9976 138.7183 0004800 259.5853 100.4202 14.91791122  1212
2022-115A               
1 53877U 22115A   22271.19046153 -.00064878  00000+0 -24052-1 0  9992
2 53877  98.4954 269.7854 0002159  84.0329 276.1231 14.32719998  1045
CZ-2D R/B               
1 53878U 22115B   22271.24021337  .00000708  00000+0  11962-3 0  9994
2 53878  98.5447 270.2900 0124597  20.4739 340.1395 14.67928719  1070
SOYUZ-MS 22             
1 53879U 22116A   22270.52893583  .00010365  00000+0  18723-3 0  9998
2 53879  51.6443 189.5440 0002401 301.1062 224.7991 15.50321764361051
2022-118A               
1 53884U 22118A   22271.16347920  .00003873  00000+0  16825-3 0  9993
2 53884  97.5202 277.6735 0013508 248.1883 176.1924 15.22832055   499
2022-118B               
1 53885U 22118B   22271.09216270  .00004511  00000+0  19199-3 0  9996
2 53885  97.5198 277.6055 0010806 257.2531 143.5662 15.23473246   477
2022-118C               
1 53942U 22118C   22270.94786198  .00043665  24295-5  54191-3 0  9996
2 53942  97.5255 277.4026 0276220 354.7144   5.1200 15.26097078   455
2022-120A               
1 53943U 22120A   22271.21144536 -.00000038  00000+0  00000+0 0  9991
2 53943  34.9966 175.0915 0009507 286.8452 209.2454 15.24512719   257
2022-120B               
1 53944U 22120B   22271.21144568 -.00000038  00000+0  00000+0 0  9997
2 53944  34.9958 175.0969 0010384 289.3863 207.0666 15.24579903   256
